COSMOS 2361 [-]         
1 25590U 98076A   17052.89992898  .00000043  00000-0  29763-4 0  9996
2 25590  82.9347 201.1746 0031203 202.8458 322.7185 13.72928455910111
COSMOS 2378 [-]         
1 26818U 01023A   17051.80745605  .00000009  00000-0 -72583-5 0  9990
2 26818  82.9261 223.5881 0033257 160.4049 199.8397 13.73911875787551
COSMOS 2389 [-]         
1 27436U 02026A   17052.76352878  .00000021  00000-0  56734-5 0  9996
2 27436  82.9538 166.5904 0046982  34.4872 119.0974 13.74910321739604
COSMOS 2398 [-]         
1 27818U 03023A   17052.24087195  .00000041  00000-0  28232-4 0  9991
2 27818  82.9498 122.3059 0032639  46.4756 313.9110 13.72139528687038
COSMOS 2407 [+]         
1 28380U 04028A   17052.15986821  .00000004  00000-0 -11772-4 0  9997
2 28380  82.9581  74.2166 0040637  49.0235 311.4423 13.76036334632044
COSMOS 2414 [+]         
1 28521U 05002A   17052.69052854  .00000046  00000-0  26084-4 0  9993
2 28521  82.9488  96.1331 0039341 310.3538  49.4191 13.87582453612266
COSMOS 2429 [-]         
1 32052U 07038A   17052.80195054  .00000036  00000-0  21167-4 0  9997
2 32052  82.9820 192.7604 0038671  16.7290 343.5132 13.74883997474197
COSMOS 2454 [-]         
1 35635U 09039A   17052.83500299  .00000020  00000-0  39673-5 0  9999
2 35635  82.9547  85.9885 0017678 273.1830  86.7312 13.89607876385036
COSMOS 2463 [+]         
1 36519U 10017A   17052.88793924  .00000114  00000-0  10939-3 0  9999
2 36519  82.9578 228.8081 0035555 206.9671 152.9637 13.71409262341666
